1 40545U 15017B   18120.70436929 -.00000067  00000-0  00000-0 0  9998
2 40545  55.8694  63.0962 0001283 292.6809  67.2638  1.70475364 19248
1 40545U 15017B   18121.29095724 -.00000065  00000-0  00000-0 0  9995
2 40545  55.8698  63.0798 0001254 293.3830  66.5642  1.70475355 19257
1 40545U 15017B   18121.87754416 -.00000064  00000-0  00000+0 0  9997
2 40545  55.8702  63.0635 0001228 293.7548  66.1952  1.70475378 19260
1 40545U 15017B   18122.46413127 -.00000062  00000-0  00000-0 0  9993
2 40545  55.8706  63.0471 0001210 294.0613  65.8915  1.70475391 19271
1 40545U 15017B   18123.05071888 -.00000059  00000-0  00000-0 0  9999
2 40545  55.8710  63.0307 0001197 294.4270  65.5287  1.70475381 19280
1 40545U 15017B   18124.22389215 -.00000055  00000-0  00000+0 0  9990
2 40545  55.8719  62.9979 0001155 295.1132  64.8481  1.70475418 19303
1 40545U 15017B   18124.22389215 -.00000055  00000-0  00000-0 0  9991
2 40545  55.8719  62.9979 0001155 295.1132  64.8481  1.70475418 19303
1 40545U 15017B   18124.81047863 -.00000053  00000-0  00000-0 0  9994
2 40545  55.8723  62.9815 0001136 295.4290  64.5348  1.70475419 19315
1 40545U 15017B   18125.39706562 -.00000051  00000-0  00000-0 0  9994
2 40545  55.8727  62.9651 0001118 295.8151  64.1508  1.70475387 19326
1 40545U 15017B   18125.98365002 -.00000049  00000-0  00000-0 0  9996
2 40545  55.8731  62.9487 0001101 296.1834  63.7843  1.70475410 19337
1 40545U 15017B   18127.15681880 -.00000046  00000-0  00000+0 0  9998
2 40545  55.8739  62.9160 0001066 297.0865  62.8835  1.70475392 19359
1 40545U 15017B   18127.74340188 -.00000045  00000-0  00000-0 0  9996
2 40545  55.8743  62.8996 0001056 297.1724  62.7980  1.70475381 19363
1 40545U 15017B   18128.32998382 -.00000044  00000-0  00000-0 0  9995
2 40545  55.8747  62.8832 0001037 298.0659  61.9047  1.70475393 19371
1 40545U 15017B   18129.50314970 -.00000043  00000-0  00000+0 0  9999
2 40545  55.8756  62.8504 0001005 299.3678  60.6023  1.70475305 19392
1 40545U 15017B   18130.67631235 -.00000043  00000-0  00000-0 0  9996
2 40545  55.8765  62.8177 0000967 300.7624  59.2064  1.70475285 19411
1 40545U 15017B   18131.84947673 -.00000044  00000-0  00000+0 0  9992
2 40545  55.8773  62.7849 0000929 301.9774  57.9904  1.70475222 19433
1 40545U 15017B   18132.43605695 -.00000044  00000-0  00000-0 0  9994
2 40545  55.8777  62.7685 0000911 302.5717  57.3959  1.70475263 19440
1 40545U 15017B   18134.78239636 -.00000048  00000-0  00000+0 0  9995
2 40545  55.8794  62.7028 0000835 304.9228  55.0484  1.70475131 19484
1 40545U 15017B   18140.06167096 -.00000058  00000-0  00000+0 0  9994
2 40545  55.8831  62.5550 0000681 311.1372  48.8516  1.70475074 19575
1 40545U 15017B   18141.23483531 -.00000064  00000-0  00000-0 0  9997
2 40545  55.8839  62.5221 0000632 312.8088  47.1794  1.70475102 19590
1 40545U 15017B   18141.82141741 -.00000068  00000-0  00000-0 0  9990
2 40545  55.8844  62.5057 0000603 313.7591  46.2281  1.70475086 19604
1 40545U 15017B   18143.58115717 -.00000079  00000-0  00000+0 0  9990
2 40545  55.8856  62.4564 0000542 315.8310  44.1520  1.70475189 19633
1 40545U 15017B   18143.58115717 -.00000079  00000-0  00000-0 0  9991
2 40545  55.8856  62.4564 0000542 315.8310  44.1520  1.70475189 19633
1 40545U 15017B   18144.16774048 -.00000082  00000-0  00000-0 0  9998
2 40545  55.8860  62.4400 0000523 316.5084  43.4735  1.70475142 19642
1 40545U 15017B   18145.34090830 -.00000087  00000-0  00000-0 0  9994
2 40545  55.8870  62.4072 0000480 318.6399  41.3414  1.70475097 19664
1 40545U 15017B   18146.51407216 -.00000088  00000-0  00000+0 0  9994
2 40545  55.8878  62.3744 0000444 320.9962  38.9868  1.70475281 19681
1 40545U 15017B   18148.86042187 -.00000084  00000-0  00000+0 0  9992
2 40545  55.8895  62.3087 0000374 327.3711  32.6221  1.70475305 19721
1 40545U 15017B   18150.62018685 -.00000077  00000-0  00000-0 0  9998
2 40545  55.8908  62.2595 0000330 333.3311  26.6724  1.70475342 19759
1 40545U 15017B   18151.20677586 -.00000075  00000-0  00000+0 0  9991
2 40545  55.8912  62.2431 0000307 338.3748  21.6324  1.70475346 19762
1 40545U 15017B   18151.20677586 -.00000075  00000-0  00000-0 0  9992
2 40545  55.8912  62.2431 0000307 338.3748  21.6324  1.70475346 19762
1 40545U 15017B   18152.96653789 -.00000068  00000-0  00000-0 0  9997
2 40545  55.8924  62.1939 0000263 348.8063  11.2094  1.70475355 19796
1 40545U 15017B   18154.72629447 -.00000063  00000-0  00000+0 0  9991
2 40545  55.8937  62.1447 0000236   0.4765 359.5443  1.70475327 19823
1 40545U 15017B   18156.48604467 -.00000059  00000-0  00000-0 0  9997
2 40545  55.8949  62.0955 0000227  14.9538 345.0685  1.70475300 19859
1 40545U 15017B   18158.83237342 -.00000057  00000-0  00000+0 0  9999
2 40545  55.8965  62.0298 0000234  33.4199 326.6018  1.70475266 19894
1 40545U 15017B   18158.83237342 -.00000057  00000-0  00000-0 0  9990
2 40545  55.8965  62.0298 0000234  33.4199 326.6018  1.70475266 19894
1 40545U 15017B   18160.00554458 -.00000058  00000-0  00000-0 0  9993
2 40545  55.8972  61.9969 0000255  47.9898 312.0328  1.70475119 19917
1 40545U 15017B   18161.17871003 -.00000059  00000-0  00000+0 0  9990
2 40545  55.8981  61.9641 0000274  57.3455 302.6792  1.70475198 19938
1 40545U 15017B   18162.93847079 -.00000059  00000-0  00000-0 0  9992
2 40545  55.8993  61.9148 0000299  66.3739 293.6571  1.70475105 19960
1 40545U 15017B   18165.87140818 -.00000061  00000-0  00000-0 0  9998
2 40545  55.9014  61.8325 0000363  79.2382 280.8059  1.70475043 20018
1 40545U 15017B   18167.04458017 -.00000064  00000-0  00000-0 0  9995
2 40545  55.9021  61.7997 0000390  82.8024 277.2442  1.70474994 20035
1 40545U 15017B   18168.21774392 -.00000069  00000-0  00000+0 0  9996
2 40545  55.9030  61.7668 0000426  86.9380 273.1087  1.70475080 20059
1 40545U 15017B   18169.97748870 -.00000079  00000-0  00000-0 0  9994
2 40545  55.9043  61.7174 0000481  92.3227 267.7207  1.70475080 20083
1 40545U 15017B   18170.56407352 -.00000082  00000-0  00000+0 0  9991
2 40545  55.9047  61.7009 0000504  94.4155 265.6265  1.70474985 20098
1 40545U 15017B   18171.73723354 -.00000088  00000-0  00000-0 0  9991
2 40545  55.9056  61.6681 0000538  97.3920 262.6479  1.70475096 20113
1 40545U 15017B   18172.91039531 -.00000091  00000-0  00000+0 0  9992
2 40545  55.9065  61.6352 0000568  99.8372 260.2024  1.70475239 20130
1 40545U 15017B   18174.08356724 -.00000091  00000-0  00000-0 0  9999
2 40545  55.9073  61.6023 0000605 101.9398 258.1019  1.70475212 20152
1 40545U 15017B   18178.18967936 -.00000077  00000-0  00000+0 0  9990
2 40545  55.9103  61.4874 0000749 107.2026 252.8594  1.70475379 20225
1 40545U 15017B   18178.77626823 -.00000074  00000-0  00000-0 0  9990
2 40545  55.9108  61.4710 0000756 108.0725 251.9924  1.70475336 20233
1 40545U 15017B   18179.36285563 -.00000072  00000-0  00000-0 0  9996
2 40545  55.9112  61.4546 0000778 108.6748 251.3929  1.70475340 20245
1 40545U 15017B   18180.53602632 -.00000067  00000-0  00000+0 0  9990
2 40545  55.9121  61.4218 0000828 110.0271 250.0451  1.70475408 20268
1 40545U 15017B   18181.12261517 -.00000065  00000-0  00000-0 0  9998
2 40545  55.9126  61.4054 0000848 110.7973 249.2764  1.70475300 20278
1 40545U 15017B   18181.70920095 -.00000062  00000-0  00000-0 0  9992
2 40545  55.9130  61.3890 0000870 111.4388 248.6360  1.70475262 20286
1 40545U 15017B   18182.88236190 -.00000059  00000-0  00000+0 0  9993
2 40545  55.9139  61.3563 0000906 111.8994 248.1765  1.70475424 20306
1 40545U 15017B   18183.46894355 -.00000057  00000-0  00000-0 0  9990
2 40545  55.9143  61.3399 0000913 112.1936 247.8822  1.70475432 20316
1 40545U 15017B   18183.46894408 -.00000057  00000-0  00000-0 0  9999
2 40545  55.9143  61.3399 0000919 112.0843 247.9915  1.70475422 20311
1 40545U 15017B   18185.22869491 -.00000054  00000-0  00000+0 0  9995
2 40545  55.9156  61.2906 0000978 112.9309 247.1437  1.70475236 20346
1 40545U 15017B   18189.92136572 -.00000051  00000-0  00000+0 0  9990
2 40545  55.9195  61.1592 0001119 116.4293 243.6491  1.70475061 20424
1 40545U 15017B   18189.92136639 -.00000051  00000-0  00000-0 0  9995
2 40545  55.9194  61.1592 0001125 116.2731 243.8054  1.70475064 20425
1 40545U 15017B   18190.50794907 -.00000051  00000-0  00000-0 0  9999
2 40545  55.9199  61.1428 0001140 116.7437 243.3369  1.70475137 20439
1 40545U 15017B   18190.50794909 -.00000051  00000-0  00000-0 0  9991
2 40545  55.9199  61.1427 0001145 117.1042 242.9764  1.70475131 20438
1 40545U 15017B   18192.85429365 -.00000050  00000-0  00000+0 0  9990
2 40545  55.9217  61.0770 0001210 118.6595 241.4294  1.70475125 20470
1 40545U 15017B   18194.02746161 -.00000052  00000-0  00000-0 0  9990
2 40545  55.9226  61.0441 0001248 119.4255 240.6654  1.70475153 20492
1 40545U 15017B   18195.20062887 -.00000056  00000-0  00000+0 0  9990
2 40545  55.9234  61.0112 0001301 120.3667 239.7236  1.70475098 20510
1 40545U 15017B   18195.78721144 -.00000058  00000-0  00000-0 0  9994
2 40545  55.9238  60.9947 0001324 120.8019 239.2873  1.70475059 20529
1 40545U 15017B   18197.54694697 -.00000067  00000-0  00000+0 0  9991
2 40545  55.9252  60.9454 0001383 122.0401 238.0431  1.70475200 20550
1 40545U 15017B   18197.54694697 -.00000067  00000-0  00000-0 0  9992
2 40545  55.9252  60.9454 0001383 122.0401 238.0431  1.70475200 20550
1 40545U 15017B   18199.89326784 -.00000077  00000-0  00000-0 0  9992
2 40545  55.9271  60.8796 0001445 123.6238 236.4527  1.70475262 20593
1 40545U 15017B   18199.89326976 -.00000077  00000-0  00000+0 0  9994
2 40545  55.9271  60.8797 0001447 123.5960 236.4806  1.70475210 20590
1 40545U 15017B   18200.47985549 -.00000077  00000-0  00000-0 0  9999
2 40545  55.9275  60.8633 0001470 124.1502 235.9260  1.70475133 20602
1 40545U 15017B   18201.06643446 -.00000077  00000-0  00000-0 0  9992
2 40545  55.9280  60.8468 0001485 124.4365 235.6400  1.70475280 20617
